{
  "type": "FeatureCollection",
  "features": [
    {
      "type": "Feature",
      "properties": {
        "norad_id": 40069,
        "name": "METEOR-M 2",
        "group": "weather",
        "lat": 8.592907751927493,
        "lon": 144.3040515547404,
        "alt_km": 819.8298637449943,
        "timestamp": "2025-12-11T08:58:26.756882+00:00",
        "meta_object_name": "METEOR-M 2",
        "meta_object_id": "2014-037A",
        "meta_epoch": "2025-12-11T04:47:31.220160",
        "meta_mean_motion": 14.21386317,
        "meta_eccentricity": 0.0004913,
        "meta_inclination": 98.4904,
        "meta_ra_of_asc_node": 322.8431,
        "meta_arg_of_pericenter": 215.0096,
        "meta_mean_anomaly": 145.076,
        "meta_ephemeris_type": 0,
        "meta_classification_type": "U",
        "meta_norad_cat_id": 40069,
        "meta_element_set_no": 999,
        "meta_rev_at_epoch": 59261,
        "meta_bstar": 0.00025318,
        "meta_mean_motion_dot": 5.11e-06,
        "meta_mean_motion_ddot": 0,
        "tle_line1": "1 40069U 14037A   25345.19966690  .00000511  00000+0  25318-3 0  9997",
        "tle_line2": "2 40069  98.4904 322.8431 0004913 215.0096 145.0760 14.21386317592610"
      },
      "geometry": {
        "type": "Point",
        "coordinates": [
          144.3040515547404,
          8.592907751927493
        ]
      }
    },
    {
      "type": "Feature",
      "properties": {
        "norad_id": 40267,
        "name": "HIMAWARI-8",
        "group": "weather",
        "lat": 0.020155382348090726,
        "lon": -4.390184247396726,
        "alt_km": 35783.52209764314,
        "timestamp": "2025-12-11T08:58:26.756895+00:00",
        "meta_object_name": "HIMAWARI-8",
        "meta_object_id": "2014-060A",
        "meta_epoch": "2025-12-10T22:46:15.538944",
        "meta_mean_motion": 1.0027034,
        "meta_eccentricity": 0.0001231,
        "meta_inclination": 0.0345,
        "meta_ra_of_asc_node": 200.098,
        "meta_arg_of_pericenter": 101.1558,
        "meta_mean_anomaly": 260.885,
        "meta_ephemeris_type": 0,
        "meta_classification_type": "U",
        "meta_norad_cat_id": 40267,
        "meta_element_set_no": 999,
        "meta_rev_at_epoch": 4087,
        "meta_bstar": 0,
        "meta_mean_motion_dot": -2.7e-06,
        "meta_mean_motion_ddot": 0,
        "tle_line1": "1 40267U 14060A   25344.94879096 -.00000270  00000+0  00000+0 0  9998",
        "tle_line2": "2 40267   0.0345 200.0980 0001231 101.1558 260.8850  1.00270340 40875"
      },
      "geometry": {
        "type": "Point",
        "coordinates": [
          -4.390184247396726,
          0.020155382348090726
        ]
      }
    },
    {
      "type": "Feature",
      "properties": {
        "norad_id": 40367,
        "name": "FENGYUN 2G",
        "group": "weather",
        "lat": -4.456177399538481,
        "lon": -45.5631290816616,
        "alt_km": 35779.332961901506,
        "timestamp": "2025-12-11T08:58:26.756908+00:00",
        "meta_object_name": "FENGYUN 2G",
        "meta_object_id": "2014-090A",
        "meta_epoch": "2025-12-10T20:22:55.693344",
        "meta_mean_motion": 1.00264635,
        "meta_eccentricity": 0.00031271,
        "meta_inclination": 5.1637,
        "meta_ra_of_asc_node": 75.1179,
        "meta_arg_of_pericenter": 194.7733,
        "meta_mean_anomaly": 215.2369,
        "meta_ephemeris_type": 0,
        "meta_classification_type": "U",
        "meta_norad_cat_id": 40367,
        "meta_element_set_no": 999,
        "meta_rev_at_epoch": 4011,
        "meta_bstar": 0,
        "meta_mean_motion_dot": -2.96e-06,
        "meta_mean_motion_ddot": 0,
        "tle_line1": "1 40367U 14090A   25344.84925571 -.00000296  00000+0  00000+0 0  9999",
        "tle_line2": "2 40367   5.1637  75.1179 0003127 194.7733 215.2369  1.00264635 40112"
      },
      "geometry": {
        "type": "Point",
        "coordinates": [
          -45.5631290816616,
          -4.456177399538481
        ]
      }
    },
    {
      "type": "Feature",
      "properties": {
        "norad_id": 40732,
        "name": "METEOSAT-11 (MSG-4)",
        "group": "weather",
        "lat": 1.2553037591223724,
        "lon": -135.70823522310016,
        "alt_km": 35783.71600703468,
        "timestamp": "2025-12-11T08:58:26.756921+00:00",
        "meta_object_name": "METEOSAT-11 (MSG-4)",
        "meta_object_id": "2015-034A",
        "meta_epoch": "2025-12-11T03:16:58.554048",
        "meta_mean_motion": 1.00266993,
        "meta_eccentricity": 9.47e-05,
        "meta_inclination": 2.7313,
        "meta_ra_of_asc_node": 72.0064,
        "meta_arg_of_pericenter": 124.4661,
        "meta_mean_anomaly": 302.1906,
        "meta_ephemeris_type": 0,
        "meta_classification_type": "U",
        "meta_norad_cat_id": 40732,
        "meta_element_set_no": 999,
        "meta_rev_at_epoch": 533,
        "meta_bstar": 0,
        "meta_mean_motion_dot": 6.7e-07,
        "meta_mean_motion_ddot": 0,
        "tle_line1": "1 40732U 15034A   25345.13678882  .00000067  00000+0  00000+0 0  9992",
        "tle_line2": "2 40732   2.7313  72.0064 0000947 124.4661 302.1906  1.00266993  5335"
      },
      "geometry": {
        "type": "Point",
        "coordinates": [
          -135.70823522310016,
          1.2553037591223724
        ]
      }
    },
    {
      "type": "Feature",
      "properties": {
        "norad_id": 41105,
        "name": "ELEKTRO-L 2",
        "group": "weather",
        "lat": 4.920618207804662,
        "lon": -159.42744458512735,
        "alt_km": 35780.23508073951,
        "timestamp": "2025-12-11T08:58:26.756933+00:00",
        "meta_object_name": "ELEKTRO-L 2",
        "meta_object_id": "2015-074A",
        "meta_epoch": "2025-12-11T02:11:38.541984",
        "meta_mean_motion": 1.00272182,
        "meta_eccentricity": 0.0003878,
        "meta_inclination": 6.222,
        "meta_ra_of_asc_node": 72.8471,
        "meta_arg_of_pericenter": 199.5378,
        "meta_mean_anomaly": 186.0824,
        "meta_ephemeris_type": 0,
        "meta_classification_type": "U",
        "meta_norad_cat_id": 41105,
        "meta_element_set_no": 999,
        "meta_rev_at_epoch": 3662,
        "meta_bstar": 0,
        "meta_mean_motion_dot": -1.12e-06,
        "meta_mean_motion_ddot": 0,
        "tle_line1": "1 41105U 15074A   25345.09141831 -.00000112  00000+0  00000+0 0  9997",
        "tle_line2": "2 41105   6.2220  72.8471 0003878 199.5378 186.0824  1.00272182 36621"
      },
      "geometry": {
        "type": "Point",
        "coordinates": [
          -159.42744458512735,
          4.920618207804662
        ]
      }
    },
    {
      "type": "Feature",
      "properties": {
        "norad_id": 41752,
        "name": "INSAT-3DR",
        "group": "weather",
        "lat": -0.04794751636959738,
        "lon": -71.00343419802317,
        "alt_km": 35728.48923326029,
        "timestamp": "2025-12-11T08:58:26.756945+00:00",
        "meta_object_name": "INSAT-3DR",
        "meta_object_id": "2016-054A",
        "meta_epoch": "2025-12-11T03:35:26.786112",
        "meta_mean_motion": 1.00270645,
        "meta_eccentricity": 0.0014436,
        "meta_inclination": 0.088,
        "meta_ra_of_asc_node": 86.584,
        "meta_arg_of_pericenter": 183.936,
        "meta_mean_anomaly": 297.4576,
        "meta_ephemeris_type": 0,
        "meta_classification_type": "U",
        "meta_norad_cat_id": 41752,
        "meta_element_set_no": 999,
        "meta_rev_at_epoch": 3393,
        "meta_bstar": 0,
        "meta_mean_motion_dot": -7.1e-07,
        "meta_mean_motion_ddot": 0,
        "tle_line1": "1 41752U 16054A   25345.14961558 -.00000071  00000+0  00000+0 0  9990",
        "tle_line2": "2 41752   0.0880  86.5840 0014436 183.9360 297.4576  1.00270645 33939"
      },
      "geometry": {
        "type": "Point",
        "coordinates": [
          -71.00343419802317,
          -0.04794751636959738
        ]
      }
    },
    {
      "type": "Feature",
      "properties": {
        "norad_id": 41836,
        "name": "HIMAWARI-9",
        "group": "weather",
        "lat": -0.018355196787178434,
        "lon": -4.261137491695324,
        "alt_km": 35785.67951716712,
        "timestamp": "2025-12-11T08:58:26.756957+00:00",
        "meta_object_name": "HIMAWARI-9",
        "meta_object_id": "2016-064A",
        "meta_epoch": "2025-12-10T22:46:23.028096",
        "meta_mean_motion": 1.00273348,
        "meta_eccentricity": 0.0001251,
        "meta_inclination": 0.0294,
        "meta_ra_of_asc_node": 85.1357,
        "meta_arg_of_pericenter": 180.7983,
        "meta_mean_anomaly": 296.3576,
        "meta_ephemeris_type": 0,
        "meta_classification_type": "U",
        "meta_norad_cat_id": 41836,
        "meta_element_set_no": 999,
        "meta_rev_at_epoch": 3332,
        "meta_bstar": 0,
        "meta_mean_motion_dot": -2.69e-06,
        "meta_mean_motion_ddot": 0,
        "tle_line1": "1 41836U 16064A   25344.94887764 -.00000269  00000+0  00000+0 0  9996",
        "tle_line2": "2 41836   0.0294  85.1357 0001251 180.7983 296.3576  1.00273348 33320"
      },
      "geometry": {
        "type": "Point",
        "coordinates": [
          -4.261137491695324,
          -0.018355196787178434
        ]
      }
    }
  ]
}